{
"type": "FeatureCollection",
"name": "cento_luoghiPoint",
"features": [
{ "type": "Feature", "properties": { "IDOBJSTAT": 1.0, "LUOGO": "Piazza del Duomo", "NUMERO_LUO": 1.0, "ETICHETTA": 1.0 }, "geometry": { "type": "Point", "coordinates": [ 11.256622, 43.77346 ] } },
{ "type": "Feature", "properties": { "IDOBJSTAT": 2.0, "LUOGO": "Palazzo Vecchio", "NUMERO_LUO": 2.0, "ETICHETTA": 2.0 }, "geometry": { "type": "Point", "coordinates": [ 11.256593, 43.769188 ] } },
{ "type": "Feature", "properties": { "IDOBJSTAT": 3.0, "LUOGO": "Lungarno Santa Rosa", "NUMERO_LUO": 3.0, "ETICHETTA": 3.0 }, "geometry": { "type": "Point", "coordinates": [ 11.240017, 43.772064 ] } },
{ "type": "Feature", "properties": { "IDOBJSTAT": 4.0, "LUOGO": "Biblioteca delle Oblate", "NUMERO_LUO": 4.0, "ETICHETTA": 4.0 }, "geometry": { "type": "Point", "coordinates": [ 11.259602, 43.77232 ] } },
{ "type": "Feature", "properties": { "IDOBJSTAT": 5.0, "LUOGO": "Viale Giannotti - Erp", "NUMERO_LUO": 5.0, "ETICHETTA": 5.0 }, "geometry": { "type": "Point", "coordinates": [ 11.28776, 43.757504 ] } },
{ "type": "Feature", "properties": { "IDOBJSTAT": 6.0, "LUOGO": "Parco dell'Anconella", "NUMERO_LUO": 6.0, "ETICHETTA": 6.0 }, "geometry": { "type": "Point", "coordinates": [ 11.297671, 43.763176 ] } },
{ "type": "Feature", "properties": { "IDOBJSTAT": 7.0, "LUOGO": "Meccanotessile", "NUMERO_LUO": 7.0, "ETICHETTA": 7.0 }, "geometry": { "type": "Point", "coordinates": [ 11.243809, 43.795807 ] } },
{ "type": "Feature", "properties": { "IDOBJSTAT": 8.0, "LUOGO": "Palazzo di Giustizia", "NUMERO_LUO": 8.0, "ETICHETTA": 8.0 }, "geometry": { "type": "Point", "coordinates": [ 11.225796, 43.795818 ] } },
{ "type": "Feature", "properties": { "IDOBJSTAT": 9.0, "LUOGO": "Piazza San Firenze", "NUMERO_LUO": 9.0, "ETICHETTA": 9.0 }, "geometry": { "type": "Point", "coordinates": [ 11.257606, 43.769932 ] } },
{ "type": "Feature", "properties": { "IDOBJSTAT": 10.0, "LUOGO": "Ex inceneritore di San Donnino", "NUMERO_LUO": 10.0, "ETICHETTA": 10.0 }, "geometry": { "type": "Point", "coordinates": [ 11.154771, 43.790089 ] } },
{ "type": "Feature", "properties": { "IDOBJSTAT": 11.0, "LUOGO": "Collettore riva sinistra", "NUMERO_LUO": 11.0, "ETICHETTA": 11.0 }, "geometry": { "type": "Point", "coordinates": [ 11.12855, 43.780205 ] } },
{ "type": "Feature", "properties": { "IDOBJSTAT": 12.0, "LUOGO": "Via del Pratellino", "NUMERO_LUO": 12.0, "ETICHETTA": 12.0 }, "geometry": { "type": "Point", "coordinates": [ 11.273754, 43.782188 ] } },
{ "type": "Feature", "properties": { "IDOBJSTAT": 13.0, "LUOGO": "Sant'Orsola", "NUMERO_LUO": 13.0, "ETICHETTA": 13.0 }, "geometry": { "type": "Point", "coordinates": [ 11.25532, 43.777096 ] } },
{ "type": "Feature", "properties": { "IDOBJSTAT": 14.0, "LUOGO": "Piazza delle Cure", "NUMERO_LUO": 14.0, "ETICHETTA": 14.0 }, "geometry": { "type": "Point", "coordinates": [ 11.268483, 43.786617 ] } },
{ "type": "Feature", "properties": { "IDOBJSTAT": 15.0, "LUOGO": "Mantignano-Ugnano", "NUMERO_LUO": 15.0, "ETICHETTA": 15.0 }, "geometry": { "type": "Point", "coordinates": [ 11.171604, 43.781387 ] } },
{ "type": "Feature", "properties": { "IDOBJSTAT": 16.0, "LUOGO": "Cascine Del Riccio", "NUMERO_LUO": 16.0, "ETICHETTA": 16.0 }, "geometry": { "type": "Point", "coordinates": [ 11.255916, 43.734756 ] } },
{ "type": "Feature", "properties": { "IDOBJSTAT": 17.0, "LUOGO": "Scuola Santa Maria a Coverciano", "NUMERO_LUO": 17.0, "ETICHETTA": 17.0 }, "geometry": { "type": "Point", "coordinates": [ 11.29504, 43.776176 ] } },
{ "type": "Feature", "properties": { "IDOBJSTAT": 18.0, "LUOGO": "Scuola Calvino", "NUMERO_LUO": 18.0, "ETICHETTA": 18.0 }, "geometry": { "type": "Point", "coordinates": [ 11.193352, 43.781136 ] } },
{ "type": "Feature", "properties": { "IDOBJSTAT": 19.0, "LUOGO": "Scuola Piero Della Francesca", "NUMERO_LUO": 19.0, "ETICHETTA": 19.0 }, "geometry": { "type": "Point", "coordinates": [ 11.195197, 43.767639 ] } },
{ "type": "Feature", "properties": { "IDOBJSTAT": 20.0, "LUOGO": "Scuola Capuana", "NUMERO_LUO": 20.0, "ETICHETTA": 20.0 }, "geometry": { "type": "Point", "coordinates": [ 11.161337, 43.792496 ] } },
{ "type": "Feature", "properties": { "IDOBJSTAT": 21.0, "LUOGO": "Giardino Viale Guidoni", "NUMERO_LUO": 21.0, "ETICHETTA": 21.0 }, "geometry": { "type": "Point", "coordinates": [ 11.225091, 43.7975341 ] } },
{ "type": "Feature", "properties": { "IDOBJSTAT": 22.0, "LUOGO": "Teatro del Maggio Musicale", "NUMERO_LUO": 22.0, "ETICHETTA": 22.0 }, "geometry": { "type": "Point", "coordinates": [ 11.234944, 43.77916 ] } },
{ "type": "Feature", "properties": { "IDOBJSTAT": 23.0, "LUOGO": "Bibliotecanova", "NUMERO_LUO": 23.0, "ETICHETTA": 23.0 }, "geometry": { "type": "Point", "coordinates": [ 11.196536, 43.780441 ] } },
{ "type": "Feature", "properties": { "IDOBJSTAT": 24.0, "LUOGO": "Biblioteca dell'Isolotto", "NUMERO_LUO": 24.0, "ETICHETTA": 24.0 }, "geometry": { "type": "Point", "coordinates": [ 11.214638, 43.779091 ] } },
{ "type": "Feature", "properties": { "IDOBJSTAT": 25.0, "LUOGO": "Nuova Biblioteca Quartiere 2", "NUMERO_LUO": 25.0, "ETICHETTA": 25.0 }, "geometry": { "type": "Point", "coordinates": [ 11.289139, 43.776237 ] } },
{ "type": "Feature", "properties": { "IDOBJSTAT": 26.0, "LUOGO": "Le Cascine e Argingrosso", "NUMERO_LUO": 26.0, "ETICHETTA": 26.0 }, "geometry": { "type": "Point", "coordinates": [ 11.206806, 43.78685 ] } },
{ "type": "Feature", "properties": { "IDOBJSTAT": 27.0, "LUOGO": "Palazzo Strozzi", "NUMERO_LUO": 27.0, "ETICHETTA": 27.0 }, "geometry": { "type": "Point", "coordinates": [ 11.251755, 43.77145 ] } },
{ "type": "Feature", "properties": { "IDOBJSTAT": 28.0, "LUOGO": "Ponte Santa Trìnita", "NUMERO_LUO": 28.0, "ETICHETTA": 28.0 }, "geometry": { "type": "Point", "coordinates": [ 11.250333, 43.769039 ] } },
{ "type": "Feature", "properties": { "IDOBJSTAT": 29.0, "LUOGO": "Castello", "NUMERO_LUO": 29.0, "ETICHETTA": 29.0 }, "geometry": { "type": "Point", "coordinates": [ 11.207256, 43.804539 ] } },
{ "type": "Feature", "properties": { "IDOBJSTAT": 30.0, "LUOGO": "Aerostazione", "NUMERO_LUO": 30.0, "ETICHETTA": 30.0 }, "geometry": { "type": "Point", "coordinates": [ 11.201248, 43.804554 ] } },
{ "type": "Feature", "properties": { "IDOBJSTAT": 31.0, "LUOGO": "Piazza Stazione SMN", "NUMERO_LUO": 31.0, "ETICHETTA": 31.0 }, "geometry": { "type": "Point", "coordinates": [ 11.248941, 43.777016 ] } },
{ "type": "Feature", "properties": { "IDOBJSTAT": 32.0, "LUOGO": "Piazza Santa Maria Novella", "NUMERO_LUO": 32.0, "ETICHETTA": 32.0 }, "geometry": { "type": "Point", "coordinates": [ 11.2494395, 43.7735663 ] } },
{ "type": "Feature", "properties": { "IDOBJSTAT": 33.0, "LUOGO": "Montedomini e immobili ASP", "NUMERO_LUO": 33.0, "ETICHETTA": 33.0 }, "geometry": { "type": "Point", "coordinates": [ 11.268121, 43.767513 ] } },
{ "type": "Feature", "properties": { "IDOBJSTAT": 34.0, "LUOGO": "San Niccolò e Torre della Zecca", "NUMERO_LUO": 34.0, "ETICHETTA": 34.0 }, "geometry": { "type": "Point", "coordinates": [ 11.264892, 43.764408 ] } },
{ "type": "Feature", "properties": { "IDOBJSTAT": 35.0, "LUOGO": "Forte Belvedere", "NUMERO_LUO": 35.0, "ETICHETTA": 35.0 }, "geometry": { "type": "Point", "coordinates": [ 11.2536466, 43.7632474 ] } },
{ "type": "Feature", "properties": { "IDOBJSTAT": 36.0, "LUOGO": "Arno", "NUMERO_LUO": 36.0, "ETICHETTA": 36.0 }, "geometry": { "type": "Point", "coordinates": [ 11.228199, 43.776627 ] } },
{ "type": "Feature", "properties": { "IDOBJSTAT": 37.0, "LUOGO": "Teatro La Pergola", "NUMERO_LUO": 37.0, "ETICHETTA": 37.0 }, "geometry": { "type": "Point", "coordinates": [ 11.261194, 43.773319 ] } },
{ "type": "Feature", "properties": { "IDOBJSTAT": 38.0, "LUOGO": "Fortezza da Basso", "NUMERO_LUO": 38.0, "ETICHETTA": 38.0 }, "geometry": { "type": "Point", "coordinates": [ 11.248541, 43.781876 ] } },
{ "type": "Feature", "properties": { "IDOBJSTAT": 39.0, "LUOGO": "Progetto Brozzi", "NUMERO_LUO": 39.0, "ETICHETTA": 39.0 }, "geometry": { "type": "Point", "coordinates": [ 11.169741, 43.795399 ] } },
{ "type": "Feature", "properties": { "IDOBJSTAT": 40.0, "LUOGO": "Piazza Santo Spirito e Via Maggio", "NUMERO_LUO": 40.0, "ETICHETTA": 40.0 }, "geometry": { "type": "Point", "coordinates": [ 11.247452, 43.766731 ] } },
{ "type": "Feature", "properties": { "IDOBJSTAT": 41.0, "LUOGO": "Via Maggio e Piazza Santo Spirito", "NUMERO_LUO": 40.0, "ETICHETTA": 40.0 }, "geometry": { "type": "Point", "coordinates": [ 11.24956, 43.767811 ] } },
{ "type": "Feature", "properties": { "IDOBJSTAT": 42.0, "LUOGO": "San Frediano", "NUMERO_LUO": 41.0, "ETICHETTA": 41.0 }, "geometry": { "type": "Point", "coordinates": [ 11.241567, 43.769886 ] } },
{ "type": "Feature", "properties": { "IDOBJSTAT": 43.0, "LUOGO": "Piazza del Carmine", "NUMERO_LUO": 42.0, "ETICHETTA": 42.0 }, "geometry": { "type": "Point", "coordinates": [ 11.244035, 43.768749 ] } },
{ "type": "Feature", "properties": { "IDOBJSTAT": 44.0, "LUOGO": "Murate-Sant'Ambrogio", "NUMERO_LUO": 43.0, "ETICHETTA": 43.0 }, "geometry": { "type": "Point", "coordinates": [ 11.268046, 43.769325 ] } },
{ "type": "Feature", "properties": { "IDOBJSTAT": 45.0, "LUOGO": "Murate-Sant'Ambrogio", "NUMERO_LUO": 43.0, "ETICHETTA": 43.0 }, "geometry": { "type": "Point", "coordinates": [ 11.267118, 43.770458 ] } },
{ "type": "Feature", "properties": { "IDOBJSTAT": 46.0, "LUOGO": "Multiplex - spazio civico", "NUMERO_LUO": 44.0, "ETICHETTA": 44.0 }, "geometry": { "type": "Point", "coordinates": [ 11.229095, 43.790672 ] } },
{ "type": "Feature", "properties": { "IDOBJSTAT": 47.0, "LUOGO": "Centrale di Novoli", "NUMERO_LUO": 45.0, "ETICHETTA": 45.0 }, "geometry": { "type": "Point", "coordinates": [ 11.2272871, 43.7906667 ] } },
{ "type": "Feature", "properties": { "IDOBJSTAT": 48.0, "LUOGO": "Ex cimitero della Misericordia", "NUMERO_LUO": 46.0, "ETICHETTA": 46.0 }, "geometry": { "type": "Point", "coordinates": [ 11.269008, 43.780052 ] } },
{ "type": "Feature", "properties": { "IDOBJSTAT": 49.0, "LUOGO": "Piazza Savonarola", "NUMERO_LUO": 47.0, "ETICHETTA": 47.0 }, "geometry": { "type": "Point", "coordinates": [ 11.266742, 43.781948 ] } },
{ "type": "Feature", "properties": { "IDOBJSTAT": 50.0, "LUOGO": "Parterre", "NUMERO_LUO": 48.0, "ETICHETTA": 48.0 }, "geometry": { "type": "Point", "coordinates": [ 11.262821, 43.785339 ] } },
{ "type": "Feature", "properties": { "IDOBJSTAT": 51.0, "LUOGO": "Galluzzo - Piazza Acciaiuoli", "NUMERO_LUO": 49.0, "ETICHETTA": 49.0 }, "geometry": { "type": "Point", "coordinates": [ 11.2252701, 43.7360842 ] } },
{ "type": "Feature", "properties": { "IDOBJSTAT": 52.0, "LUOGO": "Settignano", "NUMERO_LUO": 50.0, "ETICHETTA": 50.0 }, "geometry": { "type": "Point", "coordinates": [ 11.32066, 43.782837 ] } },
{ "type": "Feature", "properties": { "IDOBJSTAT": 53.0, "LUOGO": "Area del Mensola - Ponte a Mensola", "NUMERO_LUO": 51.0, "ETICHETTA": 51.0 }, "geometry": { "type": "Point", "coordinates": [ 11.307646, 43.783218 ] } },
{ "type": "Feature", "properties": { "IDOBJSTAT": 54.0, "LUOGO": "Via Palazzuolo", "NUMERO_LUO": 52.0, "ETICHETTA": 52.0 }, "geometry": { "type": "Point", "coordinates": [ 11.248109, 43.772923 ] } },
{ "type": "Feature", "properties": { "IDOBJSTAT": 55.0, "LUOGO": "Piazza Indipendenza", "NUMERO_LUO": 53.0, "ETICHETTA": 53.0 }, "geometry": { "type": "Point", "coordinates": [ 11.253878, 43.77993 ] } },
{ "type": "Feature", "properties": { "IDOBJSTAT": 56.0, "LUOGO": "Campini viola e nuova piscina \"Costoli\"", "NUMERO_LUO": 54.0, "ETICHETTA": 54.0 }, "geometry": { "type": "Point", "coordinates": [ 11.284482, 43.776997 ] } },
{ "type": "Feature", "properties": { "IDOBJSTAT": 57.0, "LUOGO": "San Bartolo a Cintoia", "NUMERO_LUO": 55.0, "ETICHETTA": 55.0 }, "geometry": { "type": "Point", "coordinates": [ 11.192439, 43.777809 ] } },
{ "type": "Feature", "properties": { "IDOBJSTAT": 58.0, "LUOGO": "Manifattura tabacchi", "NUMERO_LUO": 56.0, "ETICHETTA": 56.0 }, "geometry": { "type": "Point", "coordinates": [ 11.225479, 43.786465 ] } },
{ "type": "Feature", "properties": { "IDOBJSTAT": 59.0, "LUOGO": "Piazza San Jacopino", "NUMERO_LUO": 57.0, "ETICHETTA": 57.0 }, "geometry": { "type": "Point", "coordinates": [ 11.240369, 43.783848 ] } },
{ "type": "Feature", "properties": { "IDOBJSTAT": 60.0, "LUOGO": "Via Giuseppe Pietri", "NUMERO_LUO": 58.0, "ETICHETTA": 58.0 }, "geometry": { "type": "Point", "coordinates": [ 11.207605, 43.795731 ] } },
{ "type": "Feature", "properties": { "IDOBJSTAT": 61.0, "LUOGO": "Serpiolle", "NUMERO_LUO": 59.0, "ETICHETTA": 59.0 }, "geometry": { "type": "Point", "coordinates": [ 11.253726, 43.82085 ] } },
{ "type": "Feature", "properties": { "IDOBJSTAT": 62.0, "LUOGO": "Il sistema degli ospedali", "NUMERO_LUO": 60.0, "ETICHETTA": 60.0 }, "geometry": { "type": "Point", "coordinates": [ 11.248099, 43.806713 ] } },
{ "type": "Feature", "properties": { "IDOBJSTAT": 63.0, "LUOGO": "Il sistema degli ospedali", "NUMERO_LUO": 60.0, "ETICHETTA": 60.0 }, "geometry": { "type": "Point", "coordinates": [ 11.2041693, 43.7585739 ] } },
{ "type": "Feature", "properties": { "IDOBJSTAT": 64.0, "LUOGO": "Il sistema degli ospedali", "NUMERO_LUO": 60.0, "ETICHETTA": 60.0 }, "geometry": { "type": "Point", "coordinates": [ 11.2600003, 43.7734323 ] } },
{ "type": "Feature", "properties": { "IDOBJSTAT": 65.0, "LUOGO": "Ex Apollo", "NUMERO_LUO": 61.0, "ETICHETTA": 61.0 }, "geometry": { "type": "Point", "coordinates": [ 11.250924, 43.776657 ] } },
{ "type": "Feature", "properties": { "IDOBJSTAT": 66.0, "LUOGO": "Area Belfiore", "NUMERO_LUO": 62.0, "ETICHETTA": 62.0 }, "geometry": { "type": "Point", "coordinates": [ 11.242254, 43.781784 ] } },
{ "type": "Feature", "properties": { "IDOBJSTAT": 67.0, "LUOGO": "Asilo nido aziendale Pignone", "NUMERO_LUO": 63.0, "ETICHETTA": 63.0 }, "geometry": { "type": "Point", "coordinates": [ 11.226372, 43.80722 ] } },
{ "type": "Feature", "properties": { "IDOBJSTAT": 68.0, "LUOGO": "Aliso nido CRF", "NUMERO_LUO": 64.0, "ETICHETTA": 64.0 }, "geometry": { "type": "Point", "coordinates": [ 11.222317, 43.7951319 ] } },
{ "type": "Feature", "properties": { "IDOBJSTAT": 69.0, "LUOGO": "Asilo nido comunale", "NUMERO_LUO": 65.0, "ETICHETTA": 65.0 }, "geometry": { "type": "Point", "coordinates": [ 11.2876544, 43.7709741 ] } },
{ "type": "Feature", "properties": { "IDOBJSTAT": 70.0, "LUOGO": "Asilo nido ex-Meyer", "NUMERO_LUO": 66.0, "ETICHETTA": 66.0 }, "geometry": { "type": "Point", "coordinates": [ 11.269639, 43.783775 ] } },
{ "type": "Feature", "properties": { "IDOBJSTAT": 71.0, "LUOGO": "Asilo nido ospedaliero", "NUMERO_LUO": 67.0, "ETICHETTA": 67.0 }, "geometry": { "type": "Point", "coordinates": [ 11.249056, 43.806553 ] } },
{ "type": "Feature", "properties": { "IDOBJSTAT": 72.0, "LUOGO": "Sinagoga", "NUMERO_LUO": 68.0, "ETICHETTA": 68.0 }, "geometry": { "type": "Point", "coordinates": [ 11.266345, 43.773251 ] } },
{ "type": "Feature", "properties": { "IDOBJSTAT": 73.0, "LUOGO": "Giardino di Via Allori", "NUMERO_LUO": 69.0, "ETICHETTA": 69.0 }, "geometry": { "type": "Point", "coordinates": [ 11.2091701, 43.7956386 ] } },
{ "type": "Feature", "properties": { "IDOBJSTAT": 74.0, "LUOGO": "Giardino dell'Orticoltura", "NUMERO_LUO": 70.0, "ETICHETTA": 70.0 }, "geometry": { "type": "Point", "coordinates": [ 11.261236, 43.787422 ] } },
{ "type": "Feature", "properties": { "IDOBJSTAT": 75.0, "LUOGO": "Mercatino dei Ciompi", "NUMERO_LUO": 71.0, "ETICHETTA": 71.0 }, "geometry": { "type": "Point", "coordinates": [ 11.264763, 43.771084 ] } },
{ "type": "Feature", "properties": { "IDOBJSTAT": 76.0, "LUOGO": "Progetto caserme", "NUMERO_LUO": 72.0, "ETICHETTA": 72.0 }, "geometry": { "type": "Point", "coordinates": [ 11.260986, 43.782001 ] } },
{ "type": "Feature", "properties": { "IDOBJSTAT": 77.0, "LUOGO": "Progetto caserme", "NUMERO_LUO": 72.0, "ETICHETTA": 72.0 }, "geometry": { "type": "Point", "coordinates": [ 11.203242, 43.759258 ] } },
{ "type": "Feature", "properties": { "IDOBJSTAT": 78.0, "LUOGO": "Progetto cinema", "NUMERO_LUO": 73.0, "ETICHETTA": 73.0 }, "geometry": { "type": "Point", "coordinates": [ 11.257345, 43.775993 ] } },
{ "type": "Feature", "properties": { "IDOBJSTAT": 79.0, "LUOGO": "Cinema Alfieri", "NUMERO_LUO": 74.0, "ETICHETTA": 74.0 }, "geometry": { "type": "Point", "coordinates": [ 11.263664, 43.77087 ] } },
{ "type": "Feature", "properties": { "IDOBJSTAT": 80.0, "LUOGO": "Piazza Massimo D'Azeglio", "NUMERO_LUO": 75.0, "ETICHETTA": 75.0 }, "geometry": { "type": "Point", "coordinates": [ 11.2677427, 43.7744499 ] } },
{ "type": "Feature", "properties": { "IDOBJSTAT": 81.0, "LUOGO": "Mugnone", "NUMERO_LUO": 76.0, "ETICHETTA": 76.0 }, "geometry": { "type": "Point", "coordinates": [ 11.258905, 43.785416 ] } },
{ "type": "Feature", "properties": { "IDOBJSTAT": 82.0, "LUOGO": "Terzolle", "NUMERO_LUO": 77.0, "ETICHETTA": 77.0 }, "geometry": { "type": "Point", "coordinates": [ 11.238194, 43.796021 ] } },
{ "type": "Feature", "properties": { "IDOBJSTAT": 83.0, "LUOGO": "Panificio militare", "NUMERO_LUO": 78.0, "ETICHETTA": 78.0 }, "geometry": { "type": "Point", "coordinates": [ 11.2359669, 43.7914863 ] } },
{ "type": "Feature", "properties": { "IDOBJSTAT": 84.0, "LUOGO": "Piazza della Repubblica", "NUMERO_LUO": 79.0, "ETICHETTA": 79.0 }, "geometry": { "type": "Point", "coordinates": [ 11.253937, 43.771461 ] } },
{ "type": "Feature", "properties": { "IDOBJSTAT": 85.0, "LUOGO": "Lungarno Pecori-Giraldi", "NUMERO_LUO": 80.0, "ETICHETTA": 80.0 }, "geometry": { "type": "Point", "coordinates": [ 11.270873, 43.765755 ] } },
{ "type": "Feature", "properties": { "IDOBJSTAT": 86.0, "LUOGO": "Piazza Brunelleschi", "NUMERO_LUO": 81.0, "ETICHETTA": 81.0 }, "geometry": { "type": "Point", "coordinates": [ 11.259771, 43.774921 ] } },
{ "type": "Feature", "properties": { "IDOBJSTAT": 87.0, "LUOGO": "Mercato di San Lorenzo", "NUMERO_LUO": 82.0, "ETICHETTA": 82.0 }, "geometry": { "type": "Point", "coordinates": [ 11.2532619, 43.7766187 ] } },
{ "type": "Feature", "properties": { "IDOBJSTAT": 88.0, "LUOGO": "Teatro Goldoni", "NUMERO_LUO": 83.0, "ETICHETTA": 83.0 }, "geometry": { "type": "Point", "coordinates": [ 11.245391, 43.764606 ] } },
{ "type": "Feature", "properties": { "IDOBJSTAT": 89.0, "LUOGO": "Piazza San Marco", "NUMERO_LUO": 84.0, "ETICHETTA": 84.0 }, "geometry": { "type": "Point", "coordinates": [ 11.258782, 43.777836 ] } },
{ "type": "Feature", "properties": { "IDOBJSTAT": 90.0, "LUOGO": "Piazza Alberti", "NUMERO_LUO": 85.0, "ETICHETTA": 85.0 }, "geometry": { "type": "Point", "coordinates": [ 11.281736, 43.769753 ] } },
{ "type": "Feature", "properties": { "IDOBJSTAT": 91.0, "LUOGO": "Piazzale Michelangiolo", "NUMERO_LUO": 86.0, "ETICHETTA": 86.0 }, "geometry": { "type": "Point", "coordinates": [ 11.264977, 43.76292 ] } },
{ "type": "Feature", "properties": { "IDOBJSTAT": 92.0, "LUOGO": "Piazza della Vittoria", "NUMERO_LUO": 87.0, "ETICHETTA": 87.0 }, "geometry": { "type": "Point", "coordinates": [ 11.255664, 43.7861092 ] } },
{ "type": "Feature", "properties": { "IDOBJSTAT": 93.0, "LUOGO": "Piazza Elia Dalla Costa", "NUMERO_LUO": 88.0, "ETICHETTA": 88.0 }, "geometry": { "type": "Point", "coordinates": [ 11.28503, 43.759209 ] } },
{ "type": "Feature", "properties": { "IDOBJSTAT": 94.0, "LUOGO": "Villa Demidoff e San Donato in Polverosa", "NUMERO_LUO": 89.0, "ETICHETTA": 89.0 }, "geometry": { "type": "Point", "coordinates": [ 11.225789, 43.7905182 ] } },
{ "type": "Feature", "properties": { "IDOBJSTAT": 95.0, "LUOGO": "Progetto Quaracchi", "NUMERO_LUO": 90.0, "ETICHETTA": 90.0 }, "geometry": { "type": "Point", "coordinates": [ 11.179833, 43.796654 ] } },
{ "type": "Feature", "properties": { "IDOBJSTAT": 96.0, "LUOGO": "La fattoria dei ragazzi", "NUMERO_LUO": 91.0, "ETICHETTA": 91.0 }, "geometry": { "type": "Point", "coordinates": [ 11.200476, 43.778328 ] } },
{ "type": "Feature", "properties": { "IDOBJSTAT": 97.0, "LUOGO": "Ponte a Greve", "NUMERO_LUO": 92.0, "ETICHETTA": 92.0 }, "geometry": { "type": "Point", "coordinates": [ 11.190434, 43.767593 ] } },
{ "type": "Feature", "properties": { "IDOBJSTAT": 98.0, "LUOGO": "Audace Legnaia", "NUMERO_LUO": 93.0, "ETICHETTA": 93.0 }, "geometry": { "type": "Point", "coordinates": [ 11.219552, 43.77224 ] } },
{ "type": "Feature", "properties": { "IDOBJSTAT": 99.0, "LUOGO": "Due strade", "NUMERO_LUO": 94.0, "ETICHETTA": 94.0 }, "geometry": { "type": "Point", "coordinates": [ 11.237082, 43.748978 ] } },
{ "type": "Feature", "properties": { "IDOBJSTAT": 100.0, "LUOGO": "Peretola - Petriolo", "NUMERO_LUO": 95.0, "ETICHETTA": 95.0 }, "geometry": { "type": "Point", "coordinates": [ 11.192837, 43.79509 ] } },
{ "type": "Feature", "properties": { "IDOBJSTAT": 101.0, "LUOGO": "Lotto Zero", "NUMERO_LUO": 96.0, "ETICHETTA": 96.0 }, "geometry": { "type": "Point", "coordinates": [ 11.186056, 43.772083 ] } },
{ "type": "Feature", "properties": { "IDOBJSTAT": 102.0, "LUOGO": "Olmatello", "NUMERO_LUO": 97.0, "ETICHETTA": 97.0 }, "geometry": { "type": "Point", "coordinates": [ 11.21865, 43.80648 ] } },
{ "type": "Feature", "properties": { "IDOBJSTAT": 103.0, "LUOGO": "Circolo San Quirico", "NUMERO_LUO": 98.0, "ETICHETTA": 98.0 }, "geometry": { "type": "Point", "coordinates": [ 11.208544, 43.768738 ] } },
{ "type": "Feature", "properties": { "IDOBJSTAT": 104.0, "LUOGO": "Pontignale", "NUMERO_LUO": 99.0, "ETICHETTA": 99.0 }, "geometry": { "type": "Point", "coordinates": [ 11.165714, 43.777042 ] } },
{ "type": "Feature", "properties": { "IDOBJSTAT": 105.0, "LUOGO": "Sistema dei Giardini", "NUMERO_LUO": 100.0, "ETICHETTA": 100.0 }, "geometry": { "type": "Point", "coordinates": [ 11.260085, 43.76453 ] } }
]
}
