{
"type": "FeatureCollection",
"name": "tram_fermate",
"features": [
{ "type": "Feature", "properties": { "nome_ferma": "VILLA COSTANZA", "pensilina": 0, "linea": "1", "nome": "Linea 1" }, "geometry": { "type": "Point", "coordinates": [ 11.1740913, 43.7551366 ] } },
{ "type": "Feature", "properties": { "nome_ferma": "PORTA AL PRATO-LEOPOLDA(Maggio musicale Fiorentino)", "pensilina": 1, "linea": "1", "nome": "Linea 1" }, "geometry": { "type": "Point", "coordinates": [ 11.2386551, 43.7773306 ] } },
{ "type": "Feature", "properties": { "nome_ferma": "CASCINE(Olmi-Carlo Monni)", "pensilina": 1, "linea": "1", "nome": "Linea 1" }, "geometry": { "type": "Point", "coordinates": [ 11.2327643, 43.776956 ] } },
{ "type": "Feature", "properties": { "nome_ferma": "RESISTENZA(Pantin)", "pensilina": 0, "linea": "1", "nome": "Linea 1" }, "geometry": { "type": "Point", "coordinates": [ 11.1821474, 43.7579295 ] } },
{ "type": "Feature", "properties": { "nome_ferma": "DE ANDRE'(Ciliegi)", "pensilina": 1, "linea": "1", "nome": "Linea 1" }, "geometry": { "type": "Point", "coordinates": [ 11.1790122, 43.7547742 ] } },
{ "type": "Feature", "properties": { "nome_ferma": "PAOLO UCCELLO(Arno)", "pensilina": 1, "linea": "1", "nome": "Linea 1" }, "geometry": { "type": "Point", "coordinates": [ 11.2287463, 43.7754287 ] } },
{ "type": "Feature", "properties": { "nome_ferma": "FEDERIGA(Foggini)", "pensilina": 1, "linea": "1", "nome": "Linea 1" }, "geometry": { "type": "Point", "coordinates": [ 11.2119491, 43.7715065 ] } },
{ "type": "Feature", "properties": { "nome_ferma": "ARCIPRESSI(Ronco Corto)", "pensilina": 1, "linea": "1", "nome": "Linea 1" }, "geometry": { "type": "Point", "coordinates": [ 11.209248, 43.7674492 ] } },
{ "type": "Feature", "properties": { "nome_ferma": "ALAMANNI-STAZIONE(Santa Maria Novella)", "pensilina": 1, "linea": "1", "nome": "Linea 1" }, "geometry": { "type": "Point", "coordinates": [ 11.246983, 43.776075 ] } },
{ "type": "Feature", "properties": { "nome_ferma": "ALAMANNI-STAZIONE(Santa Maria Novella)", "pensilina": 1, "linea": "2", "nome": "Linea 2" }, "geometry": { "type": "Point", "coordinates": [ 11.246983, 43.776075 ] } },
{ "type": "Feature", "properties": { "nome_ferma": "SANSOVINO", "pensilina": 1, "linea": "1", "nome": "Linea 1" }, "geometry": { "type": "Point", "coordinates": [ 11.2251995, 43.7746462 ] } },
{ "type": "Feature", "properties": { "nome_ferma": "BATONI", "pensilina": 1, "linea": "1", "nome": "Linea 1" }, "geometry": { "type": "Point", "coordinates": [ 11.2212514, 43.7741322 ] } },
{ "type": "Feature", "properties": { "nome_ferma": "BATONI", "pensilina": 1, "linea": "2", "nome": "Linea 2" }, "geometry": { "type": "Point", "coordinates": [ 11.2212514, 43.7741322 ] } },
{ "type": "Feature", "properties": { "nome_ferma": "TALENTI", "pensilina": 1, "linea": "1", "nome": "Linea 1" }, "geometry": { "type": "Point", "coordinates": [ 11.2169458, 43.7735875 ] } },
{ "type": "Feature", "properties": { "nome_ferma": "ALDO MORO", "pensilina": 1, "linea": "1", "nome": "Linea 1" }, "geometry": { "type": "Point", "coordinates": [ 11.1873414, 43.7619275 ] } },
{ "type": "Feature", "properties": { "nome_ferma": "LEOPOLDO(Stibbert)", "pensilina": 1, "linea": "1", "nome": "Linea 1" }, "geometry": { "type": "Point", "coordinates": [ 11.2472382, 43.7913025 ] } },
{ "type": "Feature", "properties": { "nome_ferma": "MORGAGNI-UNIVERSITA'(Don Facibeni)", "pensilina": 1, "linea": "1", "nome": "Linea 1" }, "geometry": { "type": "Point", "coordinates": [ 11.2438849, 43.799542 ] } },
{ "type": "Feature", "properties": { "nome_ferma": "CAVOUR", "pensilina": 0, "linea": "2", "nome": "Linea 2" }, "geometry": { "type": "Point", "coordinates": [ 11.2615177, 43.7820806 ] } },
{ "type": "Feature", "properties": { "nome_ferma": "LAVAGNINI FORTEZZA(Beppe Matulli)", "pensilina": 1, "linea": "2", "nome": "Linea 2" }, "geometry": { "type": "Point", "coordinates": [ 11.2533732, 43.7819956 ] } },
{ "type": "Feature", "properties": { "nome_ferma": "LAVAGNINI POLIZIANO", "pensilina": 1, "linea": "2", "nome": "Linea 2" }, "geometry": { "type": "Point", "coordinates": [ 11.2576796, 43.7829914 ] } },
{ "type": "Feature", "properties": { "nome_ferma": "LA MARMORA ORTO BOTANICO", "pensilina": 0, "linea": "2", "nome": "Linea 2" }, "geometry": { "type": "Point", "coordinates": [ 11.261914, 43.7810978 ] } },
{ "type": "Feature", "properties": { "nome_ferma": "VALFONDA-STAZIONE S.M. NOVELLA", "pensilina": 0, "linea": "1", "nome": "Linea 1" }, "geometry": { "type": "Point", "coordinates": [ 11.2493586, 43.7765335 ] } },
{ "type": "Feature", "properties": { "nome_ferma": "FORTEZZA(Fiere e Congressi)", "pensilina": 0, "linea": "1", "nome": "Linea 1" }, "geometry": { "type": "Point", "coordinates": [ 11.2495973, 43.7804247 ] } },
{ "type": "Feature", "properties": { "nome_ferma": "BELFIORE", "pensilina": 1, "linea": "2", "nome": "Linea 2" }, "geometry": { "type": "Point", "coordinates": [ 11.2430125, 43.7820352 ] } },
{ "type": "Feature", "properties": { "nome_ferma": "ROSSELLI", "pensilina": 0, "linea": "2", "nome": "Linea 2" }, "geometry": { "type": "Point", "coordinates": [ 11.2450566, 43.7788809 ] } },
{ "type": "Feature", "properties": { "nome_ferma": "UNITA'", "pensilina": 0, "linea": "2", "nome": "Linea 2" }, "geometry": { "type": "Point", "coordinates": [ 11.2499537, 43.775038 ] } },
{ "type": "Feature", "properties": { "nome_ferma": "PERETOLA AEROPORTO", "pensilina": 1, "linea": "2", "nome": "Linea 2" }, "geometry": { "type": "Point", "coordinates": [ 11.2023879, 43.8031498 ] } },
{ "type": "Feature", "properties": { "nome_ferma": "GUIDONI", "pensilina": 0, "linea": "2", "nome": "Linea 2" }, "geometry": { "type": "Point", "coordinates": [ 11.2083595, 43.7996936 ] } },
{ "type": "Feature", "properties": { "nome_ferma": "NOVOLI-PALAZZI ROSSI", "pensilina": 1, "linea": "2", "nome": "Linea 2" }, "geometry": { "type": "Point", "coordinates": [ 11.2137934, 43.7963998 ] } },
{ "type": "Feature", "properties": { "nome_ferma": "NOVOLI-TORRE DEGLI AGLI", "pensilina": 1, "linea": "2", "nome": "Linea 2" }, "geometry": { "type": "Point", "coordinates": [ 11.2179827, 43.7943171 ] } },
{ "type": "Feature", "properties": { "nome_ferma": "NOVOLI-REGIONE TOSCANA(Palazzo di Giustizia)", "pensilina": 1, "linea": "2", "nome": "Linea 2" }, "geometry": { "type": "Point", "coordinates": [ 11.2233306, 43.7921228 ] } },
{ "type": "Feature", "properties": { "nome_ferma": "BUONSIGNORI-LICEO DA VINCI", "pensilina": 1, "linea": "2", "nome": "Linea 2" }, "geometry": { "type": "Point", "coordinates": [ 11.2346307, 43.7886345 ] } },
{ "type": "Feature", "properties": { "nome_ferma": "PONTE ALL'ASSE", "pensilina": 1, "linea": "2", "nome": "Linea 2" }, "geometry": { "type": "Point", "coordinates": [ 11.2396933, 43.7867005 ] } },
{ "type": "Feature", "properties": { "nome_ferma": "STROZZI-FALLACI", "pensilina": 1, "linea": "1", "nome": "Linea 1" }, "geometry": { "type": "Point", "coordinates": [ 11.2518946, 43.7834514 ] } },
{ "type": "Feature", "properties": { "nome_ferma": "STATUTO", "pensilina": 1, "linea": "1", "nome": "Linea 1" }, "geometry": { "type": "Point", "coordinates": [ 11.2508023, 43.7857438 ] } },
{ "type": "Feature", "properties": { "nome_ferma": "MURATORI-STAZIONE STATUTO", "pensilina": 1, "linea": "1", "nome": "Linea 1" }, "geometry": { "type": "Point", "coordinates": [ 11.2493947, 43.7882592 ] } },
{ "type": "Feature", "properties": { "nome_ferma": "PISACANE", "pensilina": 1, "linea": "1", "nome": "Linea 1" }, "geometry": { "type": "Point", "coordinates": [ 11.2439661, 43.7931556 ] } },
{ "type": "Feature", "properties": { "nome_ferma": "DALMAZIA", "pensilina": 1, "linea": "1", "nome": "Linea 1" }, "geometry": { "type": "Point", "coordinates": [ 11.2405412, 43.7956521 ] } },
{ "type": "Feature", "properties": { "nome_ferma": "CAREGGI-OSPEDALE", "pensilina": 1, "linea": "1", "nome": "Linea 1" }, "geometry": { "type": "Point", "coordinates": [ 11.2466101, 43.8032235 ] } },
{ "type": "Feature", "properties": { "nome_ferma": "POGGETTO", "pensilina": 1, "linea": "1", "nome": "Linea 1" }, "geometry": { "type": "Point", "coordinates": [ 11.2447227, 43.7939605 ] } },
{ "type": "Feature", "properties": { "nome_ferma": "LIBERTÀ PARTERRE", "pensilina": 0, "linea": "2", "nome": "Linea 2" }, "geometry": { "type": "Point", "coordinates": [ 11.2622435, 43.7842273 ] } },
{ "type": "Feature", "properties": { "nome_ferma": "SAN MARCO UNIVERSITÀ", "pensilina": 0, "linea": "2", "nome": "Linea 2" }, "geometry": { "type": "Point", "coordinates": [ 11.2586155, 43.7776761 ] } },
{ "type": "Feature", "properties": { "nome_ferma": "VITTORIO EMANUELE II(Teatro di Rifredi)", "pensilina": 1, "linea": "1", "nome": "Linea 1" }, "geometry": { "type": "Point", "coordinates": [ 11.2415665, 43.7958297 ] } },
{ "type": "Feature", "properties": { "nome_ferma": "REDI", "pensilina": 0, "linea": "2", "nome": "Linea 2" }, "geometry": { "type": "Point", "coordinates": [ 11.2422886, 43.7852578 ] } },
{ "type": "Feature", "properties": { "nome_ferma": "NENNI TORREGALLI(Lupi di Toscana)", "pensilina": 1, "linea": "1", "nome": "Linea 1" }, "geometry": { "type": "Point", "coordinates": [ 11.1979649, 43.7641445 ] } }
]
}
